[{"OBJECT_NAME":"ONEWEB-0509","OBJECT_ID":"2022-138Q","EPOCH":"2026-06-11T02:27:26.085600","MEAN_MOTION":13.19719598,"ECCENTRICITY":0.0001665,"INCLINATION":87.9175,"RA_OF_ASC_NODE":306.1766,"ARG_OF_PERICENTER":98.0237,"MEAN_ANOMALY":262.1084,"EPHEMERIS_TYPE":0,"CLASSIFICATION_TYPE":"U","NORAD_CAT_ID":54127,"ELEMENT_SET_NO":999,"REV_AT_EPOCH":17600,"BSTAR":0.00011445,"MEAN_MOTION_DOT":5.9e-07,"MEAN_MOTION_DDOT":0.0},{"OBJECT_NAME":"ONEWEB-0510","OBJECT_ID":"2022-138R","EPOCH":"2026-06-11T01:42:55.903104","MEAN_MOTION":13.20772282,"ECCENTRICITY":0.0002407,"INCLINATION":87.919,"RA_OF_ASC_NODE":275.6545,"ARG_OF_PERICENTER":98.4166,"MEAN_ANOMALY":261.724,"EPHEMERIS_TYPE":0,"CLASSIFICATION_TYPE":"U","NORAD_CAT_ID":54128,"ELEMENT_SET_NO":999,"REV_AT_EPOCH":17847,"BSTAR":-9.6892e-05,"MEAN_MOTION_DOT":-2.6e-07,"MEAN_MOTION_DDOT":0.0},{"OBJECT_NAME":"ONEWEB-0511","OBJECT_ID":"2022-138S","EPOCH":"2026-06-11T02:22:55.772832","MEAN_MOTION":13.19726144,"ECCENTRICITY":0.0001796,"INCLINATION":87.917,"RA_OF_ASC_NODE":306.1802,"ARG_OF_PERICENTER":88.2702,"MEAN_ANOMALY":271.8637,"EPHEMERIS_TYPE":0,"CLASSIFICATION_TYPE":"U","NORAD_CAT_ID":54129,"ELEMENT_SET_NO":999,"REV_AT_EPOCH":17603,"BSTAR":7.6544e-05,"MEAN_MOTION_DOT":4.4e-07,"MEAN_MOTION_DDOT":0.0},{"OBJECT_NAME":"ONEWEB-0512","OBJECT_ID":"2022-138T","EPOCH":"2026-06-11T04:00:43.026624","MEAN_MOTION":13.19724624,"ECCENTRICITY":0.0001547,"INCLINATION":87.9163,"RA_OF_ASC_NODE":306.1721,"ARG_OF_PERICENTER":90.8431,"MEAN_ANOMALY":269.2879,"EPHEMERIS_TYPE":0,"CLASSIFICATION_TYPE":"U","NORAD_CAT_ID":54130,"ELEMENT_SET_NO":999,"REV_AT_EPOCH":17601,"BSTAR":-5.632e-05,"MEAN_MOTION_DOT":-1e-07,"MEAN_MOTION_DDOT":0.0},{"OBJECT_NAME":"ONEWEB-0513","OBJECT_ID":"2022-138U","EPOCH":"2026-06-11T02:23:14.447328","MEAN_MOTION":13.20268826,"ECCENTRICITY":0.0001354,"INCLINATION":87.917,"RA_OF_ASC_NODE":306.1304,"ARG_OF_PERICENTER":67.5005,"MEAN_ANOMALY":292.6271,"EPHEMERIS_TYPE":0,"CLASSIFICATION_TYPE":"U","NORAD_CAT_ID":54131,"ELEMENT_SET_NO":999,"REV_AT_EPOCH":17591,"BSTAR":4.4710000000000004e-05,"MEAN_MOTION_DOT":3.1e-07,"MEAN_MOTION_DDOT":0.0},{"OBJECT_NAME":"ONEWEB-0514","OBJECT_ID":"2022-138V","EPOCH":"2026-06-11T02:34:17.223456","MEAN_MOTION":13.1972473,"ECCENTRICITY":0.0001974,"INCLINATION":87.9174,"RA_OF_ASC_NODE":306.1772,"ARG_OF_PERICENTER":96.9441,"MEAN_ANOMALY":263.1916,"EPHEMERIS_TYPE":0,"CLASSIFICATION_TYPE":"U","NORAD_CAT_ID":54132,"ELEMENT_SET_NO":999,"REV_AT_EPOCH":17602,"BSTAR":0.00012685,"MEAN_MOTION_DOT":6.4e-07,"MEAN_MOTION_DDOT":0.0},{"OBJECT_NAME":"ONEWEB-0515","OBJECT_ID":"2022-138W","EPOCH":"2026-06-11T01:23:31.074720","MEAN_MOTION":13.20769841,"ECCENTRICITY":0.00026,"INCLINATION":87.9195,"RA_OF_ASC_NODE":275.6515,"ARG_OF_PERICENTER":115.3287,"MEAN_ANOMALY":244.8116,"EPHEMERIS_TYPE":0,"CLASSIFICATION_TYPE":"U","NORAD_CAT_ID":54133,"ELEMENT_SET_NO":999,"REV_AT_EPOCH":17849,"BSTAR":-3.6643e-05,"MEAN_MOTION_DOT":-2e-08,"MEAN_MOTION_DDOT":0.0},{"OBJECT_NAME":"ONEWEB-0516","OBJECT_ID":"2022-138X","EPOCH":"2026-06-11T03:47:03.896736","MEAN_MOTION":13.19724667,"ECCENTRICITY":0.0001751,"INCLINATION":87.9164,"RA_OF_ASC_NODE":306.1741,"ARG_OF_PERICENTER":101.5208,"MEAN_ANOMALY":258.6121,"EPHEMERIS_TYPE":0,"CLASSIFICATION_TYPE":"U","NORAD_CAT_ID":54134,"ELEMENT_SET_NO":999,"REV_AT_EPOCH":17603,"BSTAR":-7.4495e-05,"MEAN_MOTION_DOT":-1.7e-07,"MEAN_MOTION_DDOT":0.0},{"OBJECT_NAME":"ONEWEB-0517","OBJECT_ID":"2022-138Y","EPOCH":"2026-06-11T03:17:29.984640","MEAN_MOTION":13.19724255,"ECCENTRICITY":0.0001988,"INCLINATION":87.917,"RA_OF_ASC_NODE":306.1701,"ARG_OF_PERICENTER":89.4814,"MEAN_ANOMALY":270.6546,"EPHEMERIS_TYPE":0,"CLASSIFICATION_TYPE":"U","NORAD_CAT_ID":54135,"ELEMENT_SET_NO":999,"REV_AT_EPOCH":17603,"BSTAR":9.4299e-05,"MEAN_MOTION_DOT":5.1e-07,"MEAN_MOTION_DDOT":0.0},{"OBJECT_NAME":"ONEWEB-0518","OBJECT_ID":"2022-138Z","EPOCH":"2026-06-11T03:44:49.983648","MEAN_MOTION":13.1972727,"ECCENTRICITY":0.0001765,"INCLINATION":87.9164,"RA_OF_ASC_NODE":306.1764,"ARG_OF_PERICENTER":103.7049,"MEAN_ANOMALY":256.428,"EPHEMERIS_TYPE":0,"CLASSIFICATION_TYPE":"U","NORAD_CAT_ID":54136,"ELEMENT_SET_NO":999,"REV_AT_EPOCH":17603,"BSTAR":-0.000106,"MEAN_MOTION_DOT":-2.9e-07,"MEAN_MOTION_DDOT":0.0},{"OBJECT_NAME":"ONEWEB-0519","OBJECT_ID":"2022-138AA","EPOCH":"2026-06-11T02:32:02.001408","MEAN_MOTION":13.19726431,"ECCENTRICITY":0.0001941,"INCLINATION":87.9177,"RA_OF_ASC_NODE":306.1769,"ARG_OF_PERICENTER":91.9596,"MEAN_ANOMALY":268.176,"EPHEMERIS_TYPE":0,"CLASSIFICATION_TYPE":"U","NORAD_CAT_ID":54137,"ELEMENT_SET_NO":999,"REV_AT_EPOCH":17603,"BSTAR":0.00014135,"MEAN_MOTION_DOT":7e-07,"MEAN_MOTION_DDOT":0.0},{"OBJECT_NAME":"ONEWEB-0520","OBJECT_ID":"2022-138AB","EPOCH":"2026-06-11T03:22:03.613440","MEAN_MOTION":13.19724286,"ECCENTRICITY":0.0001562,"INCLINATION":87.9172,"RA_OF_ASC_NODE":306.1704,"ARG_OF_PERICENTER":98.2492,"MEAN_ANOMALY":261.8818,"EPHEMERIS_TYPE":0,"CLASSIFICATION_TYPE":"U","NORAD_CAT_ID":54138,"ELEMENT_SET_NO":999,"REV_AT_EPOCH":17602,"BSTAR":3.85e-05,"MEAN_MOTION_DOT":2.8e-07,"MEAN_MOTION_DDOT":0.0},{"OBJECT_NAME":"ONEWEB-0521","OBJECT_ID":"2022-138AC","EPOCH":"2026-06-11T02:20:38.523840","MEAN_MOTION":13.19725022,"ECCENTRICITY":0.000199,"INCLINATION":87.9174,"RA_OF_ASC_NODE":306.1675,"ARG_OF_PERICENTER":92.4002,"MEAN_ANOMALY":267.7359,"EPHEMERIS_TYPE":0,"CLASSIFICATION_TYPE":"U","NORAD_CAT_ID":54139,"ELEMENT_SET_NO":999,"REV_AT_EPOCH":17596,"BSTAR":-1.149e-05,"MEAN_MOTION_DOT":8e-08,"MEAN_MOTION_DDOT":0.0},{"OBJECT_NAME":"ONEWEB-0522","OBJECT_ID":"2022-138AD","EPOCH":"2026-06-11T03:40:15.134016","MEAN_MOTION":13.19723941,"ECCENTRICITY":0.000169,"INCLINATION":87.9176,"RA_OF_ASC_NODE":306.1588,"ARG_OF_PERICENTER":96.0604,"MEAN_ANOMALY":264.0722,"EPHEMERIS_TYPE":0,"CLASSIFICATION_TYPE":"U","NORAD_CAT_ID":54140,"ELEMENT_SET_NO":999,"REV_AT_EPOCH":17601,"BSTAR":-0.00012643,"MEAN_MOTION_DOT":-3.8e-07,"MEAN_MOTION_DDOT":0.0},{"OBJECT_NAME":"ONEWEB-0523","OBJECT_ID":"2022-138AE","EPOCH":"2026-06-11T02:53:13.043040","MEAN_MOTION":13.20770641,"ECCENTRICITY":0.0002772,"INCLINATION":87.9192,"RA_OF_ASC_NODE":275.6493,"ARG_OF_PERICENTER":102.9744,"MEAN_ANOMALY":257.1699,"EPHEMERIS_TYPE":0,"CLASSIFICATION_TYPE":"U","NORAD_CAT_ID":54141,"ELEMENT_SET_NO":999,"REV_AT_EPOCH":17850,"BSTAR":0.00011095,"MEAN_MOTION_DOT":5.8e-07,"MEAN_MOTION_DDOT":0.0},{"OBJECT_NAME":"ONEWEB-0524","OBJECT_ID":"2022-138AF","EPOCH":"2026-06-11T00:49:35.250528","MEAN_MOTION":13.20770837,"ECCENTRICITY":0.0002446,"INCLINATION":87.9193,"RA_OF_ASC_NODE":275.6636,"ARG_OF_PERICENTER":120.3577,"MEAN_ANOMALY":239.7798,"EPHEMERIS_TYPE":0,"CLASSIFICATION_TYPE":"U","NORAD_CAT_ID":54142,"ELEMENT_SET_NO":999,"REV_AT_EPOCH":17849,"BSTAR":9.6328e-05,"MEAN_MOTION_DOT":5.2e-07,"MEAN_MOTION_DDOT":0.0},{"OBJECT_NAME":"ONEWEB-0525","OBJECT_ID":"2022-138AG","EPOCH":"2026-06-11T02:18:21.696480","MEAN_MOTION":13.19725319,"ECCENTRICITY":0.0001469,"INCLINATION":87.917,"RA_OF_ASC_NODE":306.178,"ARG_OF_PERICENTER":102.5095,"MEAN_ANOMALY":257.6203,"EPHEMERIS_TYPE":0,"CLASSIFICATION_TYPE":"U","NORAD_CAT_ID":54143,"ELEMENT_SET_NO":999,"REV_AT_EPOCH":17602,"BSTAR":6.6158e-05,"MEAN_MOTION_DOT":3.9e-07,"MEAN_MOTION_DDOT":0.0},{"OBJECT_NAME":"ONEWEB-0526","OBJECT_ID":"2022-138AH","EPOCH":"2026-06-11T03:06:07.981056","MEAN_MOTION":13.19725363,"ECCENTRICITY":0.0001743,"INCLINATION":87.9172,"RA_OF_ASC_NODE":306.1718,"ARG_OF_PERICENTER":101.1264,"MEAN_ANOMALY":259.0065,"EPHEMERIS_TYPE":0,"CLASSIFICATION_TYPE":"U","NORAD_CAT_ID":54144,"ELEMENT_SET_NO":999,"REV_AT_EPOCH":17600,"BSTAR":8.7909e-05,"MEAN_MOTION_DOT":4.8e-07,"MEAN_MOTION_DDOT":0.0},{"OBJECT_NAME":"ONEWEB-0529","OBJECT_ID":"2022-138AJ","EPOCH":"2026-06-11T03:10:40.513440","MEAN_MOTION":13.19723949,"ECCENTRICITY":0.0001613,"INCLINATION":87.9166,"RA_OF_ASC_NODE":306.1808,"ARG_OF_PERICENTER":99.5169,"MEAN_ANOMALY":260.6146,"EPHEMERIS_TYPE":0,"CLASSIFICATION_TYPE":"U","NORAD_CAT_ID":54145,"ELEMENT_SET_NO":999,"REV_AT_EPOCH":17602,"BSTAR":0.00014002,"MEAN_MOTION_DOT":6.9e-07,"MEAN_MOTION_DDOT":0.0},{"OBJECT_NAME":"ONEWEB-0531","OBJECT_ID":"2022-138AK","EPOCH":"2026-06-11T05:57:28.648800","MEAN_MOTION":13.20771881,"ECCENTRICITY":0.0002782,"INCLINATION":87.9189,"RA_OF_ASC_NODE":275.6186,"ARG_OF_PERICENTER":108.3971,"MEAN_ANOMALY":251.7465,"EPHEMERIS_TYPE":0,"CLASSIFICATION_TYPE":"U","NORAD_CAT_ID":54146,"ELEMENT_SET_NO":999,"REV_AT_EPOCH":17852,"BSTAR":6.7575e-05,"MEAN_MOTION_DOT":4e-07,"MEAN_MOTION_DDOT":0.0},{"OBJECT_NAME":"ONEWEB-0535","OBJECT_ID":"2022-138AL","EPOCH":"2026-06-11T02:09:15.728832","MEAN_MOTION":13.19724966,"ECCENTRICITY":0.0002156,"INCLINATION":87.9172,"RA_OF_ASC_NODE":306.173,"ARG_OF_PERICENTER":96.4459,"MEAN_ANOMALY":263.6919,"EPHEMERIS_TYPE":0,"CLASSIFICATION_TYPE":"U","NORAD_CAT_ID":54147,"ELEMENT_SET_NO":999,"REV_AT_EPOCH":17603,"BSTAR":-8.6477e-05,"MEAN_MOTION_DOT":-2.2e-07,"MEAN_MOTION_DDOT":0.0},{"OBJECT_NAME":"ONEWEB-0536","OBJECT_ID":"2022-138AM","EPOCH":"2026-06-11T05:38:03.968160","MEAN_MOTION":13.20771061,"ECCENTRICITY":0.0002851,"INCLINATION":87.9178,"RA_OF_ASC_NODE":275.6444,"ARG_OF_PERICENTER":112.4994,"MEAN_ANOMALY":247.6442,"EPHEMERIS_TYPE":0,"CLASSIFICATION_TYPE":"U","NORAD_CAT_ID":54148,"ELEMENT_SET_NO":999,"REV_AT_EPOCH":17851,"BSTAR":-9.171e-06,"MEAN_MOTION_DOT":9e-08,"MEAN_MOTION_DDOT":0.0},{"OBJECT_NAME":"ONEWEB-0527","OBJECT_ID":"2022-166A","EPOCH":"2026-06-11T06:00:02.000160","MEAN_MOTION":13.21858442,"ECCENTRICITY":0.0002173,"INCLINATION":87.9258,"RA_OF_ASC_NODE":245.1791,"ARG_OF_PERICENTER":100.1538,"MEAN_ANOMALY":154.1756,"EPHEMERIS_TYPE":0,"CLASSIFICATION_TYPE":"U","NORAD_CAT_ID":54642,"ELEMENT_SET_NO":999,"REV_AT_EPOCH":525,"BSTAR":-0.041863000000000004,"MEAN_MOTION_DOT":-0.00017252,"MEAN_MOTION_DDOT":0.0}]